{
  "type": "FeatureCollection",
  "features": [
    {
      "type": "Feature",
      "properties": {
        "norad_id": 34478,
        "name": "COSMOS 2251 DEB",
        "group": "cosmos-2251-debris",
        "lat": -26.01647628366245,
        "lon": -146.58823339597194,
        "alt_km": 532.0644633572729,
        "timestamp": "2025-12-03T17:47:51.112733+00:00",
        "meta_object_name": "COSMOS 2251 DEB",
        "meta_object_id": "1993-036TX",
        "meta_epoch": "2025-12-03T07:52:49.294848",
        "meta_mean_motion": 15.06780112,
        "meta_eccentricity": 0.0037034,
        "meta_inclination": 74.0425,
        "meta_ra_of_asc_node": 26.2315,
        "meta_arg_of_pericenter": 249.573,
        "meta_mean_anomaly": 237.2203,
        "meta_ephemeris_type": 0,
        "meta_classification_type": "U",
        "meta_norad_cat_id": 34478,
        "meta_element_set_no": 999,
        "meta_rev_at_epoch": 88831,
        "meta_bstar": 0.003552,
        "meta_mean_motion_dot": 0.00054076,
        "meta_mean_motion_ddot": 0,
        "tle_line1": "1 34478U 93036TX  25337.32834832  .00054076  00000+0  35520-2 0  9998",
        "tle_line2": "2 34478  74.0425  26.2315 0037034 249.5730 237.2203 15.06780112888314"
      },
      "geometry": {
        "type": "Point",
        "coordinates": [
          -146.58823339597194,
          -26.01647628366245
        ]
      }
    },
    {
      "type": "Feature",
      "properties": {
        "norad_id": 34481,
        "name": "COSMOS 2251 DEB",
        "group": "cosmos-2251-debris",
        "lat": 62.17539103061059,
        "lon": 102.92133832817822,
        "alt_km": 827.8331303600626,
        "timestamp": "2025-12-03T17:47:51.112743+00:00",
        "meta_object_name": "COSMOS 2251 DEB",
        "meta_object_id": "1993-036UA",
        "meta_epoch": "2025-12-03T12:31:35.724000",
        "meta_mean_motion": 14.32489349,
        "meta_eccentricity": 0.0070977,
        "meta_inclination": 73.9802,
        "meta_ra_of_asc_node": 70.3429,
        "meta_arg_of_pericenter": 246.3607,
        "meta_mean_anomaly": 128.5111,
        "meta_ephemeris_type": 0,
        "meta_classification_type": "U",
        "meta_norad_cat_id": 34481,
        "meta_element_set_no": 999,
        "meta_rev_at_epoch": 87317,
        "meta_bstar": 0.0011241,
        "meta_mean_motion_dot": 3.106e-05,
        "meta_mean_motion_ddot": 0,
        "tle_line1": "1 34481U 93036UA  25337.52194125  .00003106  00000+0  11241-2 0  9990",
        "tle_line2": "2 34481  73.9802  70.3429 0070977 246.3607 128.5111 14.32489349873176"
      },
      "geometry": {
        "type": "Point",
        "coordinates": [
          102.92133832817822,
          62.17539103061059
        ]
      }
    },
    {
      "type": "Feature",
      "properties": {
        "norad_id": 34482,
        "name": "COSMOS 2251 DEB",
        "group": "cosmos-2251-debris",
        "lat": 41.90478510834187,
        "lon": 46.12603816453687,
        "alt_km": 692.425986913262,
        "timestamp": "2025-12-03T17:47:51.112754+00:00",
        "meta_object_name": "COSMOS 2251 DEB",
        "meta_object_id": "1993-036UB",
        "meta_epoch": "2025-12-03T04:47:42.161856",
        "meta_mean_motion": 14.68816931,
        "meta_eccentricity": 0.00458133,
        "meta_inclination": 74.0378,
        "meta_ra_of_asc_node": 242.0575,
        "meta_arg_of_pericenter": 303.72,
        "meta_mean_anomaly": 208.7465,
        "meta_ephemeris_type": 0,
        "meta_classification_type": "U",
        "meta_norad_cat_id": 34482,
        "meta_element_set_no": 999,
        "meta_rev_at_epoch": 88047,
        "meta_bstar": 0.0031222252,
        "meta_mean_motion_dot": 0.00018541,
        "meta_mean_motion_ddot": 0,
        "tle_line1": "1 34482U 93036UB  25337.19979354  .00018541  00000+0  31222-2 0  9999",
        "tle_line2": "2 34482  74.0378 242.0575 0045813 303.7200 208.7465 14.68816931880479"
      },
      "geometry": {
        "type": "Point",
        "coordinates": [
          46.12603816453687,
          41.90478510834187
        ]
      }
    },
    {
      "type": "Feature",
      "properties": {
        "norad_id": 34544,
        "name": "COSMOS 2251 DEB",
        "group": "cosmos-2251-debris",
        "lat": 56.71078867546776,
        "lon": 12.53193636887276,
        "alt_km": 1223.3608284916727,
        "timestamp": "2025-12-03T17:47:51.112765+00:00",
        "meta_object_name": "COSMOS 2251 DEB",
        "meta_object_id": "1993-036UE",
        "meta_epoch": "2025-12-02T02:58:13.056672",
        "meta_mean_motion": 13.54654027,
        "meta_eccentricity": 0.03847802,
        "meta_inclination": 73.9153,
        "meta_ra_of_asc_node": 221.2162,
        "meta_arg_of_pericenter": 251.6007,
        "meta_mean_anomaly": 264.6648,
        "meta_ephemeris_type": 0,
        "meta_classification_type": "U",
        "meta_norad_cat_id": 34544,
        "meta_element_set_no": 999,
        "meta_rev_at_epoch": 82738,
        "meta_bstar": 0.00020621286,
        "meta_mean_motion_dot": 2.02e-06,
        "meta_mean_motion_ddot": 0,
        "tle_line1": "1 34544U 93036UE  25336.12376223  .00000202  00000+0  20621-3 0  9993",
        "tle_line2": "2 34544  73.9153 221.2162 0384780 251.6007 264.6648 13.54654027827388"
      },
      "geometry": {
        "type": "Point",
        "coordinates": [
          12.53193636887276,
          56.71078867546776
        ]
      }
    },
    {
      "type": "Feature",
      "properties": {
        "norad_id": 34546,
        "name": "COSMOS 2251 DEB",
        "group": "cosmos-2251-debris",
        "lat": 15.710693688780928,
        "lon": -89.41770375912724,
        "alt_km": 728.7616111629814,
        "timestamp": "2025-12-03T17:47:51.112776+00:00",
        "meta_object_name": "COSMOS 2251 DEB",
        "meta_object_id": "1993-036UG",
        "meta_epoch": "2025-12-02T22:18:50.159808",
        "meta_mean_motion": 14.45333108,
        "meta_eccentricity": 0.00216815,
        "meta_inclination": 74.0314,
        "meta_ra_of_asc_node": 267.4753,
        "meta_arg_of_pericenter": 342.3195,
        "meta_mean_anomaly": 131.664,
        "meta_ephemeris_type": 0,
        "meta_classification_type": "U",
        "meta_norad_cat_id": 34546,
        "meta_element_set_no": 999,
        "meta_rev_at_epoch": 87884,
        "meta_bstar": 0.0009692575,
        "meta_mean_motion_dot": 3.39e-05,
        "meta_mean_motion_ddot": 0,
        "tle_line1": "1 34546U 93036UG  25336.92974722  .00003390  00000+0  96926-3 0  9993",
        "tle_line2": "2 34546  74.0314 267.4753 0021681 342.3195 131.6640 14.45333108878840"
      },
      "geometry": {
        "type": "Point",
        "coordinates": [
          -89.41770375912724,
          15.710693688780928
        ]
      }
    },
    {
      "type": "Feature",
      "properties": {
        "norad_id": 34547,
        "name": "COSMOS 2251 DEB",
        "group": "cosmos-2251-debris",
        "lat": 54.57116810174124,
        "lon": 141.97366915005728,
        "alt_km": 659.604161133404,
        "timestamp": "2025-12-03T17:47:51.112787+00:00",
        "meta_object_name": "COSMOS 2251 DEB",
        "meta_object_id": "1993-036UH",
        "meta_epoch": "2025-12-02T10:32:28.829184",
        "meta_mean_motion": 14.71896843,
        "meta_eccentricity": 0.00189154,
        "meta_inclination": 74.0295,
        "meta_ra_of_asc_node": 120.7688,
        "meta_arg_of_pericenter": 201.1584,
        "meta_mean_anomaly": 158.8808,
        "meta_ephemeris_type": 0,
        "meta_classification_type": "U",
        "meta_norad_cat_id": 34547,
        "meta_element_set_no": 999,
        "meta_rev_at_epoch": 88370,
        "meta_bstar": 0.0023605263,
        "meta_mean_motion_dot": 0.00014826,
        "meta_mean_motion_ddot": 0,
        "tle_line1": "1 34547U 93036UH  25336.43922256  .00014826  00000+0  23605-2 0  9994",
        "tle_line2": "2 34547  74.0295 120.7688 0018915 201.1584 158.8808 14.71896843883704"
      },
      "geometry": {
        "type": "Point",
        "coordinates": [
          141.97366915005728,
          54.57116810174124
        ]
      }
    },
    {
      "type": "Feature",
      "properties": {
        "norad_id": 34553,
        "name": "COSMOS 2251 DEB",
        "group": "cosmos-2251-debris",
        "lat": 59.87372948091601,
        "lon": -121.41295751016663,
        "alt_km": 705.0395149624273,
        "timestamp": "2025-12-03T17:47:51.112798+00:00",
        "meta_object_name": "COSMOS 2251 DEB",
        "meta_object_id": "1993-036UP",
        "meta_epoch": "2025-12-03T11:08:18.044736",
        "meta_mean_motion": 14.57573342,
        "meta_eccentricity": 0.0019685,
        "meta_inclination": 74.0256,
        "meta_ra_of_asc_node": 209.535,
        "meta_arg_of_pericenter": 287.7085,
        "meta_mean_anomaly": 120.9605,
        "meta_ephemeris_type": 0,
        "meta_classification_type": "U",
        "meta_norad_cat_id": 34553,
        "meta_element_set_no": 999,
        "meta_rev_at_epoch": 87961,
        "meta_bstar": 0.0016014,
        "meta_mean_motion_dot": 7.287e-05,
        "meta_mean_motion_ddot": 0,
        "tle_line1": "1 34553U 93036UP  25337.46409774  .00007287  00000+0  16014-2 0  9999",
        "tle_line2": "2 34553  74.0256 209.5350 0019685 287.7085 120.9605 14.57573342879611"
      },
      "geometry": {
        "type": "Point",
        "coordinates": [
          -121.41295751016663,
          59.87372948091601
        ]
      }
    }
  ]
}